start=new Date('2021-12-11T00:00:00.000Z').valueOf();
sats=[{"DECAY_DATE":null,"MEAN_ELEMENT_THEORY":"SGP4","TLE_LINE1":"1 48391U 21038AQ  21344.64446431 -.00000343  00000-0 -41171-5 0  9996","MEAN_MOTION_DOT":"-0.00000343","CENTER_NAME":"EARTH","OBJECT_ID":"2021-038AQ","COUNTRY_CODE":"US","PERIOD":"95.593","REF_FRAME":"TEME","INCLINATION":"53.0556","GP_ID":"191457955","PERIAPSIS":"546.375","BSTAR":"-0.00000411710000","REV_AT_EPOCH":"3489","TIME_SYSTEM":"UTC","MEAN_ANOMALY":"265.4926","RA_OF_ASC_NODE":"100.0376","TLE_LINE2":"2 48391  53.0556 100.0376 0001238  94.6204 265.4926 15.06393774 34890","LAUNCH_DATE":"2021-05-04","OBJECT_TYPE":"PAYLOAD","SEMIMAJOR_AXIS":"6925.368","ELEMENT_SET_NO":"999","NORAD_CAT_ID":"48391","ECCENTRICITY":"0.00012380","ARG_OF_PERICENTER":"94.6204","FILE":"3237005","EPOCH":"2021-12-10T15:28:01.716384","OBJECT_NAME":"STARLINK-2607","MEAN_MOTION":"15.06393774","APOAPSIS":"548.090","RCS_SIZE":"LARGE","MEAN_MOTION_DDOT":"0.0000000000000","EPHEMERIS_TYPE":"0","SITE":"AFETR","CLASSIFICATION_TYPE":"U"},{"ELEMENT_SET_NO":"999","SEMIMAJOR_AXIS":"6925.349","RA_OF_ASC_NODE":"99.7539","OBJECT_TYPE":"PAYLOAD","TLE_LINE2":"2 48392  53.0559  99.7539 0001194  87.4776 272.6349 15.06399890 34900","LAUNCH_DATE":"2021-05-04","FILE":"3237005","EPOCH":"2021-12-10T16:58:14.399904","ARG_OF_PERICENTER":"87.4776","NORAD_CAT_ID":"48392","ECCENTRICITY":"0.00011940","RCS_SIZE":"LARGE","MEAN_MOTION_DDOT":"0.0000000000000","APOAPSIS":"548.041","MEAN_MOTION":"15.06399890","OBJECT_NAME":"STARLINK-2605","CLASSIFICATION_TYPE":"U","SITE":"AFETR","EPHEMERIS_TYPE":"0","MEAN_MOTION_DOT":"0.00001021","MEAN_ELEMENT_THEORY":"SGP4","TLE_LINE1":"1 48392U 21038AR  21344.70711111  .00001021  00000-0  87412-4 0  9993","DECAY_DATE":null,"GP_ID":"191458706","INCLINATION":"53.0559","PERIOD":"95.592","REF_FRAME":"TEME","OBJECT_ID":"2021-038AR","CENTER_NAME":"EARTH","COUNTRY_CODE":"US","PERIAPSIS":"546.387","MEAN_ANOMALY":"272.6349","REV_AT_EPOCH":"3490","TIME_SYSTEM":"UTC","BSTAR":"0.00008741200000"},{"MEAN_MOTION_DOT":"0.00000825","MEAN_ELEMENT_THEORY":"SGP4","TLE_LINE1":"1 48393U 21038AS  21344.76978642  .00000825  00000-0  74290-4 0  9995","DECAY_DATE":null,"GP_ID":"191458957","INCLINATION":"53.0564","REF_FRAME":"TEME","PERIOD":"95.593","CENTER_NAME":"EARTH","OBJECT_ID":"2021-038AS","COUNTRY_CODE":"US","PERIAPSIS":"546.282","MEAN_ANOMALY":"267.6391","REV_AT_EPOCH":"3491","TIME_SYSTEM":"UTC","BSTAR":"0.00007429000000","ELEMENT_SET_NO":"999","SEMIMAJOR_AXIS":"6925.375","RA_OF_ASC_NODE":"99.4794","LAUNCH_DATE":"2021-05-04","TLE_LINE2":"2 48393  53.0564  99.4794 0001383  92.4756 267.6391 15.06391323 34916","OBJECT_TYPE":"PAYLOAD","FILE":"3237005","EPOCH":"2021-12-10T18:28:29.546688","ARG_OF_PERICENTER":"92.4756","NORAD_CAT_ID":"48393","ECCENTRICITY":"0.00013830","RCS_SIZE":"LARGE","MEAN_MOTION_DDOT":"0.0000000000000","APOAPSIS":"548.198","MEAN_MOTION":"15.06391323","OBJECT_NAME":"STARLINK-2602","CLASSIFICATION_TYPE":"U","EPHEMERIS_TYPE":"0","SITE":"AFETR"},{"SEMIMAJOR_AXIS":"6925.381","ELEMENT_SET_NO":"999","TLE_LINE2":"2 48394  53.0557  99.7836 0001135  87.2745 272.8374 15.06389502 34908","OBJECT_TYPE":"PAYLOAD","LAUNCH_DATE":"2021-05-04","RA_OF_ASC_NODE":"99.7836","ARG_OF_PERICENTER":"87.2745","EPOCH":"2021-12-10T16:47:38.716224","FILE":"3237005","ECCENTRICITY":"0.00011350","NORAD_CAT_ID":"48394","APOAPSIS":"548.032","MEAN_MOTION_DDOT":"0.0000000000000","RCS_SIZE":"LARGE","OBJECT_NAME":"STARLINK-2573","MEAN_MOTION":"15.06389502","SITE":"AFETR","EPHEMERIS_TYPE":"0","CLASSIFICATION_TYPE":"U","TLE_LINE1":"1 48394U 21038AT  21344.69975366  .00000952  00000-0  82820-4 0  9997","MEAN_ELEMENT_THEORY":"SGP4","MEAN_MOTION_DOT":"0.00000952","DECAY_DATE":null,"GP_ID":"191459708","INCLINATION":"53.0557","COUNTRY_CODE":"US","OBJECT_ID":"2021-038AT","CENTER_NAME":"EARTH","PERIOD":"95.593","REF_FRAME":"TEME","PERIAPSIS":"546.460","MEAN_ANOMALY":"272.8374","BSTAR":"0.00008282000000","REV_AT_EPOCH":"3490","TIME_SYSTEM":"UTC"},{"PERIAPSIS":"546.370","REV_AT_EPOCH":"3492","TIME_SYSTEM":"UTC","BSTAR":"0.00006747700000","MEAN_ANOMALY":"277.9102","DECAY_DATE":null,"MEAN_MOTION_DOT":"0.00000724","MEAN_ELEMENT_THEORY":"SGP4","TLE_LINE1":"1 48395U 21038AU  21344.81678601  .00000724  00000-0  67477-4 0  9992","PERIOD":"95.593","REF_FRAME":"TEME","CENTER_NAME":"EARTH","OBJECT_ID":"2021-038AU","COUNTRY_CODE":"US","INCLINATION":"53.0556","GP_ID":"191458456","MEAN_MOTION":"15.06388521","OBJECT_NAME":"STARLINK-2574","RCS_SIZE":"LARGE","MEAN_MOTION_DDOT":"0.0000000000000","APOAPSIS":"548.128","CLASSIFICATION_TYPE":"U","EPHEMERIS_TYPE":"0","SITE":"AFETR","RA_OF_ASC_NODE":"99.2580","OBJECT_TYPE":"PAYLOAD","TLE_LINE2":"2 48395  53.0556  99.2580 0001269  82.2031 277.9102 15.06388521 34927","LAUNCH_DATE":"2021-05-04","ELEMENT_SET_NO":"999","SEMIMAJOR_AXIS":"6925.384","NORAD_CAT_ID":"48395","ECCENTRICITY":"0.00012690","FILE":"3237005","EPOCH":"2021-12-10T19:36:10.311264","ARG_OF_PERICENTER":"82.2031"},{"PERIAPSIS":"546.362","MEAN_ANOMALY":"262.5392","REV_AT_EPOCH":"3490","TIME_SYSTEM":"UTC","BSTAR":"-0.00000737280000","MEAN_MOTION_DOT":"-0.00000391","MEAN_ELEMENT_THEORY":"SGP4","TLE_LINE1":"1 48396U 21038AV  21344.69606431 -.00000391  00000-0 -73728-5 0  9990","DECAY_DATE":null,"GP_ID":"191458206","INCLINATION":"53.0571","REF_FRAME":"TEME","PERIOD":"95.592","OBJECT_ID":"2021-038AV","CENTER_NAME":"EARTH","COUNTRY_CODE":"US","RCS_SIZE":"LARGE","MEAN_MOTION_DDOT":"0.0000000000000","APOAPSIS":"548.088","MEAN_MOTION":"15.06396337","OBJECT_NAME":"STARLINK-2575","CLASSIFICATION_TYPE":"U","EPHEMERIS_TYPE":"0","SITE":"AFETR","ELEMENT_SET_NO":"999","SEMIMAJOR_AXIS":"6925.360","RA_OF_ASC_NODE":"99.7955","TLE_LINE2":"2 48396  53.0571  99.7955 0001246  97.5739 262.5392 15.06396337 34908","OBJECT_TYPE":"PAYLOAD","LAUNCH_DATE":"2021-05-04","FILE":"3237005","EPOCH":"2021-12-10T16:42:19.956384","ARG_OF_PERICENTER":"97.5739","NORAD_CAT_ID":"48396","ECCENTRICITY":"0.00012460"},{"INCLINATION":"53.0570","GP_ID":"191459458","REF_FRAME":"TEME","PERIOD":"95.592","COUNTRY_CODE":"US","CENTER_NAME":"EARTH","OBJECT_ID":"2021-038AW","MEAN_MOTION_DOT":"-0.00000607","TLE_LINE1":"1 48397U 21038AW  21344.69237571 -.00000607  00000-0 -21871-4 0  9997","MEAN_ELEMENT_THEORY":"SGP4","DECAY_DATE":null,"MEAN_ANOMALY":"269.4457","REV_AT_EPOCH":"3490","TIME_SYSTEM":"UTC","BSTAR":"-0.00002187100000","PERIAPSIS":"546.309","EPOCH":"2021-12-10T16:37:01.261344","FILE":"3237005","ARG_OF_PERICENTER":"90.6683","ECCENTRICITY":"0.00013200","NORAD_CAT_ID":"48397","ELEMENT_SET_NO":"999","SEMIMAJOR_AXIS":"6925.358","LAUNCH_DATE":"2021-05-04","TLE_LINE2":"2 48397  53.0570  99.8291 0001320  90.6683 269.4457 15.06396836 34909","OBJECT_TYPE":"PAYLOAD","RA_OF_ASC_NODE":"99.8291","CLASSIFICATION_TYPE":"U","SITE":"AFETR","EPHEMERIS_TYPE":"0","MEAN_MOTION_DDOT":"0.0000000000000","RCS_SIZE":"LARGE","APOAPSIS":"548.137","MEAN_MOTION":"15.06396836","OBJECT_NAME":"STARLINK-2590"},{"TLE_LINE1":"1 48398U 21038AX  21344.75503530  .00001060  00000-0  90075-4 0  9990","MEAN_ELEMENT_THEORY":"SGP4","MEAN_MOTION_DOT":"0.00001060","DECAY_DATE":null,"GP_ID":"191459208","INCLINATION":"53.0559","COUNTRY_CODE":"US","OBJECT_ID":"2021-038AX","CENTER_NAME":"EARTH","PERIOD":"95.593","REF_FRAME":"TEME","PERIAPSIS":"546.391","MEAN_ANOMALY":"268.7484","BSTAR":"0.00009007500000","REV_AT_EPOCH":"3491","TIME_SYSTEM":"UTC","SEMIMAJOR_AXIS":"6925.371","ELEMENT_SET_NO":"999","OBJECT_TYPE":"PAYLOAD","TLE_LINE2":"2 48398  53.0559  99.5402 0001220  91.3645 268.7484 15.06392597 34916","LAUNCH_DATE":"2021-05-04","RA_OF_ASC_NODE":"99.5402","ARG_OF_PERICENTER":"91.3645","EPOCH":"2021-12-10T18:07:15.049920","FILE":"3237005","ECCENTRICITY":"0.00012200","NORAD_CAT_ID":"48398","APOAPSIS":"548.081","MEAN_MOTION_DDOT":"0.0000000000000","RCS_SIZE":"LARGE","OBJECT_NAME":"STARLINK-2588","MEAN_MOTION":"15.06392597","SITE":"AFETR","EPHEMERIS_TYPE":"0","CLASSIFICATION_TYPE":"U"},{"TLE_LINE2":"2 48399  53.0570  98.3765 0001486  89.5728 270.5431 15.06393617 34326","OBJECT_TYPE":"PAYLOAD","LAUNCH_DATE":"2021-05-04","RA_OF_ASC_NODE":"98.3765","SEMIMAJOR_AXIS":"6925.368","ELEMENT_SET_NO":"999","ECCENTRICITY":"0.00014860","NORAD_CAT_ID":"48399","ARG_OF_PERICENTER":"89.5728","EPOCH":"2021-12-11T00:24:06.146784","FILE":"3236979","OBJECT_NAME":"STARLINK-2587","MEAN_MOTION":"15.06393617","APOAPSIS":"548.262","MEAN_MOTION_DDOT":"0.0000000000000","RCS_SIZE":"LARGE","EPHEMERIS_TYPE":"0","SITE":"AFETR","CLASSIFICATION_TYPE":"U","DECAY_DATE":null,"TLE_LINE1":"1 48399U 21038AY  21345.01673781  .00001117  00000-0  93856-4 0  9990","MEAN_ELEMENT_THEORY":"SGP4","MEAN_MOTION_DOT":"0.00001117","COUNTRY_CODE":"US","OBJECT_ID":"2021-038AY","CENTER_NAME":"EARTH","PERIOD":"95.593","REF_FRAME":"TEME","GP_ID":"191436065","INCLINATION":"53.0570","PERIAPSIS":"546.204","BSTAR":"0.00009385600000","TIME_SYSTEM":"UTC","REV_AT_EPOCH":"3432","MEAN_ANOMALY":"270.5431"},{"NORAD_CAT_ID":"48400","ECCENTRICITY":"0.00012630","FILE":"3237005","EPOCH":"2021-12-10T19:32:10.398336","ARG_OF_PERICENTER":"98.6027","RA_OF_ASC_NODE":"99.2793","TLE_LINE2":"2 48400  53.0564  99.2793 0001263  98.6027 261.5105 15.06397757 33707","OBJECT_TYPE":"PAYLOAD","LAUNCH_DATE":"2021-05-04","ELEMENT_SET_NO":"999","SEMIMAJOR_AXIS":"6925.355","CLASSIFICATION_TYPE":"U","EPHEMERIS_TYPE":"0","SITE":"AFETR","MEAN_MOTION":"15.06397757","OBJECT_NAME":"STARLINK-2576","RCS_SIZE":"LARGE","MEAN_MOTION_DDOT":"0.0000000000000","APOAPSIS":"548.095","PERIOD":"95.592","REF_FRAME":"TEME","CENTER_NAME":"EARTH","OBJECT_ID":"2021-038AZ","COUNTRY_CODE":"US","GP_ID":"191458707","INCLINATION":"53.0564","DECAY_DATE":null,"MEAN_MOTION_DOT":"-0.00000627","MEAN_ELEMENT_THEORY":"SGP4","TLE_LINE1":"1 48400U 21038AZ  21344.81400924 -.00000627  00000-0 -23185-4 0  9992","REV_AT_EPOCH":"3370","TIME_SYSTEM":"UTC","BSTAR":"-0.00002318500000","MEAN_ANOMALY":"261.5105","PERIAPSIS":"546.346"}];
